[
  { "name": "Paris", "insee": "75101", "postalCode": "75000", "region": "Île-de-France" },
  { "name": "Marseille", "insee": "13055", "postalCode": "13000", "region": "Provence-Alpes-Côte d'Azur" },
  { "name": "Lyon", "insee": "69385", "postalCode": "69000", "region": "Auvergne-Rhône-Alpes" },
  { "name": "Toulouse", "insee": "31555", "postalCode": "31000", "region": "Occitanie" },
  { "name": "Nice", "insee": "06088", "postalCode": "06000", "region": "Provence-Alpes-Côte d'Azur" },
  { "name": "Nantes", "insee": "44109", "postalCode": "44000", "region": "Pays de la Loire" },
  { "name": "Montpellier", "insee": "34172", "postalCode": "34000", "region": "Occitanie" },
  { "name": "Strasbourg", "insee": "67482", "postalCode": "67000", "region": "Grand Est" },
  { "name": "Bordeaux", "insee": "33063", "postalCode": "33000", "region": "Nouvelle-Aquitaine" },
  { "name": "Lille", "insee": "59350", "postalCode": "59000", "region": "Hauts-de-France" },
  { "name": "Rennes", "insee": "35238", "postalCode": "35000", "region": "Bretagne" },
  { "name": "Reims", "insee": "51454", "postalCode": "51100", "region": "Grand Est" },
  { "name": "Le Havre", "insee": "76351", "postalCode": "76600", "region": "Normandie" },
  { "name": "Saint-Étienne", "insee": "42218", "postalCode": "42000", "region": "Auvergne-Rhône-Alpes" },
  { "name": "Toulon", "insee": "83137", "postalCode": "83000", "region": "Provence-Alpes-Côte d'Azur" },
  { "name": "Grenoble", "insee": "38185", "postalCode": "38000", "region": "Auvergne-Rhône-Alpes" },
  { "name": "Dijon", "insee": "21231", "postalCode": "21000", "region": "Bourgogne-Franche-Comté" },
  { "name": "Angers", "insee": "49007", "postalCode": "49000", "region": "Pays de la Loire" },
  { "name": "Nîmes", "insee": "30189", "postalCode": "30000", "region": "Occitanie" },
  { "name": "Villeurbanne", "insee": "69266", "postalCode": "69100", "region": "Auvergne-Rhône-Alpes" },
  { "name": "Saint-Denis", "insee": "93066", "postalCode": "93200", "region": "Île-de-France" },
  { "name": "Le Mans", "insee": "72181", "postalCode": "72000", "region": "Pays de la Loire" },
  { "name": "Aix-en-Provence", "insee": "13001", "postalCode": "13100", "region": "Provence-Alpes-Côte d'Azur" },
  { "name": "Brest", "insee": "29019", "postalCode": "29200", "region": "Bretagne" },
  { "name": "Clermont-Ferrand", "insee": "63113", "postalCode": "63000", "region": "Auvergne-Rhône-Alpes" },
  { "name": "Limoges", "insee": "87085", "postalCode": "87000", "region": "Nouvelle-Aquitaine" },
  { "name": "Tours", "insee": "37261", "postalCode": "37000", "region": "Centre-Val de Loire" },
  { "name": "Amiens", "insee": "80021", "postalCode": "80000", "region": "Hauts-de-France" },
  { "name": "Perpignan", "insee": "66136", "postalCode": "66000", "region": "Occitanie" },
  { "name": "Metz", "insee": "57463", "postalCode": "57000", "region": "Grand Est" },
  { "name": "Besançon", "insee": "25056", "postalCode": "25000", "region": "Bourgogne-Franche-Comté" },
  { "name": "Boulogne-Billancourt", "insee": "92012", "postalCode": "92100", "region": "Île-de-France" },
  { "name": "Orléans", "insee": "45234", "postalCode": "45000", "region": "Centre-Val de Loire" },
  { "name": "Mulhouse", "insee": "68224", "postalCode": "68100", "region": "Grand Est" },
  { "name": "Rouen", "insee": "76540", "postalCode": "76000", "region": "Normandie" },
  { "name": "Caen", "insee": "14118", "postalCode": "14000", "region": "Normandie" },
  { "name": "Nancy", "insee": "54395", "postalCode": "54000", "region": "Grand Est" },
  { "name": "Saint-Paul", "insee": "97415", "postalCode": "97460", "region": "La Réunion" },
  { "name": "Montreuil", "insee": "93048", "postalCode": "93100", "region": "Île-de-France" },
  { "name": "Argenteuil", "insee": "95018", "postalCode": "95100", "region": "Île-de-France" },
  { "name": "Roubaix", "insee": "59512", "postalCode": "59100", "region": "Hauts-de-France" },
  { "name": "Tourcoing", "insee": "59599", "postalCode": "59200", "region": "Hauts-de-France" },
  { "name": "Nanterre", "insee": "92050", "postalCode": "92000", "region": "Île-de-France" },
  { "name": "Avignon", "insee": "84007", "postalCode": "84000", "region": "Provence-Alpes-Côte d'Azur" },
  { "name": "Créteil", "insee": "94028", "postalCode": "94000", "region": "Île-de-France" },
  { "name": "Poitiers", "insee": "86194", "postalCode": "86000", "region": "Nouvelle-Aquitaine" },
  { "name": "Versailles", "insee": "78646", "postalCode": "78000", "region": "Île-de-France" },
  { "name": "Courbevoie", "insee": "92026", "postalCode": "92400", "region": "Île-de-France" },
  { "name": "Pau", "insee": "64445", "postalCode": "64000", "region": "Nouvelle-Aquitaine" }
]